[{"OBJECT_NAME":"STARLINK-4557","OBJECT_ID":"2022-097AW","EPOCH":"2026-03-09T11:13:24.248064","MEAN_MOTION":15.08842876,"ECCENTRICITY":0.00012694,"INCLINATION":53.2167,"RA_OF_ASC_NODE":104.8783,"ARG_OF_PERICENTER":91.0838,"MEAN_ANOMALY":269.03,"EPHEMERIS_TYPE":0,"CLASSIFICATION_TYPE":"U","NORAD_CAT_ID":53432,"ELEMENT_SET_NO":999,"REV_AT_EPOCH":19875,"BSTAR":-4.6281808e-5,"MEAN_MOTION_DOT":-1.024e-5,"MEAN_MOTION_DDOT":0},{"OBJECT_NAME":"OBJECT M","OBJECT_ID":"2017-042M","EPOCH":"2026-03-09T22:38:39.337440","MEAN_MOTION":15.07991931,"ECCENTRICITY":0.0005117,"INCLINATION":97.4139,"RA_OF_ASC_NODE":234.2602,"ARG_OF_PERICENTER":83.1417,"MEAN_ANOMALY":277.0393,"EPHEMERIS_TYPE":0,"CLASSIFICATION_TYPE":"U","NORAD_CAT_ID":42836,"ELEMENT_SET_NO":999,"REV_AT_EPOCH":47205,"BSTAR":0.00047182615,"MEAN_MOTION_DOT":7.201e-5,"MEAN_MOTION_DDOT":0}]
